0 THORAD AGENA D DEB
1 04991U 70025HM  13282.10182932 -.00000045  00000-0  30507-5 0  1597
2 04991 100.1370 330.6099 0020387 347.2807 041.1599 13.53258600147866
0 THORAD AGENA D DEB
1 04991U 70025HM  13287.13603378  .00000002  00000-0  73316-4 0  1616
2 04991 100.1360 335.7582 0020243 334.7753 086.5859 13.53258824148546
0 THORAD AGENA D DEB
1 04991U 70025HM  13289.73564216 -.00000004  00000-0  64554-4 0  1629
2 04991 100.1352 338.4166 0020195 328.2156 151.3516 13.53259214148899
0 THORAD AGENA D DEB
1 04991U 70025HM  13292.09014476 -.00000023  00000-0  35693-4 0  1634
2 04991 100.1348 340.8240 0020155 322.2233 102.0644 13.53259411149211
0 THORAD AGENA D DEB
1 04991U 70025HM  13294.38217716 -.00000039  00000-0  12195-4 0  1640
2 04991 100.1347 343.1673 0020118 316.3605 108.4652 13.53259494149526
